      2.10          N: GNSS NAV DATA                        RINEX VERSION / TYPE
fic2rin                                 06/26/2020 00:17:34 PGM / RUN BY / DATE
                                                            END OF HEADER
 4 20  6 25  9 29 36.0-1.068422570825e-04-4.774847184308e-12 0.000000000000e+00
    1.140000000000e+02 1.446875000000e+01 4.621263922763e-09-1.614127449744e+00
    5.662441253662e-07 7.693285588175e-04 9.067356586456e-06 5.153664276123e+03
    3.797760000000e+05-1.303851604462e-08-1.591551070353e+00-5.587935447693e-09
    9.595999554642e-01 2.011250000000e+02-2.621461130378e+00-7.972117784991e-09
    5.621662736246e-10 1.000000000000e+00 2.111000000000e+03 0.000000000000e+00
    2.400000000000e+00 0.000000000000e+00-4.190951585770e-09 3.700000000000e+02
    3.726600000000e+05 4.000000000000e+00
 7 20  6 25  7 59 44.0-3.124643117189e-04-8.753886504564e-12 0.000000000000e+00
    0.000000000000e+00-1.687500000000e+00 5.212717130592e-09 1.984189413156e+00
   -1.732259988785e-07 1.403194211889e-02 6.387010216713e-06 5.153651182175e+03
    3.743840000000e+05-3.408640623093e-07-5.654509156774e-01-1.434236764908e-07
    9.530056298583e-01 2.573750000000e+02-2.385984441098e+00-8.239986085638e-09
   -1.807218135032e-10 1.000000000000e+00 2.111000000000e+03 0.000000000000e+00
    2.400000000000e+00 0.000000000000e+00-1.117587089539e-08 0.000000000000e+00
    3.732000000000e+05 4.000000000000e+00
 2 20  6 25  9 59 44.0-4.775347188115e-04-5.911715561524e-12 0.000000000000e+00
    1.300000000000e+01-3.028125000000e+01 4.561261423418e-09-2.258511624509e+00
   -1.331791281700e-06 1.972284633666e-02 1.095235347748e-06 5.153725856781e+03
    3.815840000000e+05 2.905726432800e-07 2.495778801171e+00 1.862645149231e-08
    9.595723648292e-01 3.572187500000e+02-1.621694994769e+00-8.150696652089e-09
   -2.428672592533e-11 1.000000000000e+00 2.111000000000e+03 0.000000000000e+00
    2.400000000000e+00 0.000000000000e+00-1.769512891769e-08 1.300000000000e+01
    3.744000000000e+05 4.000000000000e+00
 7 20  6 25  9 59 44.0-3.125276416540e-04-8.753886504564e-12 0.000000000000e+00
    3.500000000000e+01-6.250000000000e-01 5.113784438220e-09 3.034366109734e+00
   -1.378357410431e-07 1.403151149862e-02 6.053596735001e-06 5.153652166367e+03
    3.815840000000e+05-7.823109626770e-08-5.655093446255e-01-2.346932888031e-07
    9.530053094793e-01 2.610937500000e+02-2.385962201817e+00-8.043549331830e-09
   -1.582208762489e-10 1.000000000000e+00 2.111000000000e+03 0.000000000000e+00
    2.400000000000e+00 0.000000000000e+00-1.117587089539e-08 3.500000000000e+01
    3.744000000000e+05 4.000000000000e+00
28 20  6 25  9 59 44.0 7.055178284645e-04-3.524291969370e-12 0.000000000000e+00
    2.000000000000e+00 4.509375000000e+01 4.215889894451e-09 3.830770437822e-01
    2.387911081314e-06 1.836609910242e-02 1.044012606144e-05 5.153667778015e+03
    3.815840000000e+05-1.676380634308e-07 5.631677906333e-01-8.940696716309e-08
    9.774566349008e-01 1.944687500000e+02-1.404397594934e+00-8.093908572352e-09
   -4.425184326689e-10 1.000000000000e+00 2.111000000000e+03 0.000000000000e+00
    2.400000000000e+00 0.000000000000e+00-1.117587089539e-08 2.000000000000e+00
    3.744000000000e+05 4.000000000000e+00
19 20  6 25  9 59 44.0-1.405444927514e-04 5.115907697473e-12 0.000000000000e+00
    5.000000000000e+00 1.071875000000e+02 3.999452307528e-09 2.189420497900e+00
    5.375593900681e-06 9.462386253290e-03 5.034729838371e-06 5.153694675446e+03
    3.815840000000e+05 1.788139343262e-07 1.620777964571e+00-4.097819328308e-08
    9.818811984474e-01 2.889062500000e+02 1.650211187291e+00-7.866399095669e-09
    3.000124967247e-11 1.000000000000e+00 2.111000000000e+03 0.000000000000e+00
    2.400000000000e+00 0.000000000000e+00-1.536682248116e-08 5.000000000000e+00
    3.744000000000e+05 4.000000000000e+00
32 20  6 25  9 59 44.0 3.061983734369e-04 6.707523425575e-12 0.000000000000e+00
    6.000000000000e+00-5.218750000000e+00 4.708410409907e-09 3.193734992110e-01
   -3.166496753693e-07 4.045086330734e-03 9.413808584213e-06 5.153725341797e+03
    3.815840000000e+05 7.450580596924e-09-1.631201873237e+00 5.587935447693e-08
    9.564560669772e-01 1.991250000000e+02-2.431809614083e+00-7.999618930524e-09
    5.325221816864e-10 1.000000000000e+00 2.111000000000e+03 0.000000000000e+00
    2.400000000000e+00 0.000000000000e+00 4.656612873077e-10 6.000000000000e+00
    3.744000000000e+05 4.000000000000e+00
16 20  6 25  9 59 44.0-1.747640781105e-04-4.661160346586e-12 0.000000000000e+00
    1.300000000000e+01 2.996875000000e+01 4.158744656979e-09 4.792548812895e-01
    1.845881342888e-06 1.145451446064e-02 1.009367406368e-05 5.153782011032e+03
    3.815840000000e+05-5.029141902924e-08 5.594543705830e-01 1.713633537292e-07
    9.784316054323e-01 1.927500000000e+02 6.361136156797e-01-7.877828143163e-09
   -5.171643991159e-10 1.000000000000e+00 2.111000000000e+03 0.000000000000e+00
    2.400000000000e+00 0.000000000000e+00-1.071020960808e-08 1.300000000000e+01
    3.744000000000e+05 4.000000000000e+00
10 20  6 25  9 59 44.0-3.814357332885e-04-1.091393642128e-11 0.000000000000e+00
    3.000000000000e+01-1.140937500000e+02 4.136958035193e-09 1.697176601052e+00
   -5.887821316719e-06 5.646008299664e-03 8.666887879372e-06 5.153673339844e+03
    3.815840000000e+05-5.960464477539e-08-2.673630407072e+00-1.490116119385e-08
    9.661860755625e-01 2.147812500000e+02-2.635788005002e+00-7.903543500025e-09
   -4.143029716675e-11 1.000000000000e+00 2.111000000000e+03 0.000000000000e+00
    2.400000000000e+00 0.000000000000e+00 2.328306436539e-09 3.000000000000e+01
    3.744000000000e+05 4.000000000000e+00
12 20  6 25  9 59 44.0 1.018918119371e-04-4.774847184308e-12 0.000000000000e+00
    1.900000000000e+01 4.003125000000e+01 3.999095149794e-09 2.331854467967e+00
    1.836568117142e-06 8.020071662031e-03 1.061707735062e-05 5.153673320770e+03
    3.815840000000e+05 1.303851604462e-08 5.406034554467e-01-1.695007085800e-07
    9.782203483583e-01 1.787812500000e+02 1.164801650184e+00-7.538171137943e-09
   -5.325221816864e-10 1.000000000000e+00 2.111000000000e+03 0.000000000000e+00
    2.400000000000e+00 0.000000000000e+00-1.210719347000e-08 1.900000000000e+01
    3.744000000000e+05 4.000000000000e+00
29 20  6 25  9 59 44.0-1.358208246529e-04-8.640199666843e-12 0.000000000000e+00
    1.700000000000e+01 1.070000000000e+02 3.864446684002e-09-2.382656138621e-02
    5.505979061127e-06 1.568182604387e-03 6.886199116707e-06 5.153570325851e+03
    3.815840000000e+05-2.421438694000e-08 1.586974613485e+00-4.470348358154e-08
    9.853459780151e-01 2.597500000000e+02 1.993019475501e+00-7.897114660810e-09
    1.010756387775e-10 1.000000000000e+00 2.111000000000e+03 0.000000000000e+00
    2.400000000000e+00 0.000000000000e+00-9.778887033463e-09 1.700000000000e+01
    3.744000000000e+05 4.000000000000e+00
 1 20  6 25 10  0  0.0 1.619989052415e-05 7.048583938740e-12 0.000000000000e+00
    1.400000000000e+01-4.221875000000e+01 4.056954702733e-09-2.498611575258e+00
   -2.102926373482e-06 1.000324718188e-02 2.257525920868e-06 5.153711547852e+03
    3.816000000000e+05 7.823109626770e-08 2.572661356323e+00-1.024454832077e-07
    9.806524716088e-01 3.465000000000e+02 7.942758159302e-01-8.007476400676e-09
   -2.250093725435e-11 1.000000000000e+00 2.111000000000e+03 0.000000000000e+00
    2.400000000000e+00 0.000000000000e+00 5.122274160385e-09 1.400000000000e+01
    3.744000000000e+05 4.000000000000e+00
 6 20  6 25 10  0  0.0-2.939845435321e-04-5.684341886081e-12 0.000000000000e+00
    2.000000000000e+00-4.137500000000e+01 4.252677141073e-09-2.315774790732e+00
   -2.164393663406e-06 1.840820070356e-03 2.074986696243e-06 5.153563596725e+03
    3.816000000000e+05 2.235174179077e-08 2.564415902376e+00 5.587935447693e-09
    9.801990460018e-01 3.520312500000e+02-1.052510729708e+00-8.255343868208e-09
   -1.185763677531e-10 1.000000000000e+00 2.111000000000e+03 0.000000000000e+00
    2.400000000000e+00 0.000000000000e+00 4.190951585770e-09 2.000000000000e+00
    3.744000000000e+05 4.000000000000e+00
 3 20  6 25 10  0  0.0-2.199546433985e-04-1.193711796077e-11 0.000000000000e+00
    8.000000000000e+00-1.002500000000e+02 4.015524405567e-09 2.775851193436e+00
   -5.187466740608e-06 2.952329232357e-03 9.007751941681e-06 5.153539537430e+03
    3.816000000000e+05 9.313225746155e-09-2.670610620852e+00-9.313225746155e-09
    9.662426334384e-01 2.088125000000e+02 7.300633397142e-01-7.811396804603e-09
    9.286101089098e-11 1.000000000000e+00 2.111000000000e+03 0.000000000000e+00
    2.400000000000e+00 0.000000000000e+00 1.862645149231e-09 8.000000000000e+00
    3.744000000000e+05 4.000000000000e+00
11 20  6 25 10  0  0.0-2.389848232269e-04 1.068656274583e-11 0.000000000000e+00
    1.400000000000e+01 4.681250000000e+01 5.488442901391e-09-3.017923820458e+00
    2.564862370491e-06 1.603038853500e-02 1.549720764160e-06 5.153722606659e+03
    3.816000000000e+05 1.061707735062e-07 2.096137804530e+00 2.086162567139e-07
    9.128333815287e-01 3.241562500000e+02 1.997425931048e+00-8.561428046414e-09
    3.214419607765e-11 1.000000000000e+00 2.111000000000e+03 0.000000000000e+00
    2.400000000000e+00 0.000000000000e+00-1.257285475731e-08 1.400000000000e+01
    3.744000000000e+05 4.000000000000e+00
 8 20  6 25 10  0  0.0-3.875046968460e-05-1.250555214938e-12 0.000000000000e+00
    3.900000000000e+01 9.290625000000e+01 4.210889686172e-09-2.246908034796e-01
    4.747882485390e-06 5.346007877961e-03 6.297603249550e-06 5.153689167023e+03
    3.816000000000e+05 8.009374141693e-08 1.502031743983e+00-1.676380634308e-08
    9.693629513893e-01 2.645312500000e+02-6.301968888585e-02-8.098908780630e-09
    3.928735076157e-12 1.000000000000e+00 2.111000000000e+03 0.000000000000e+00
    2.400000000000e+00 0.000000000000e+00 5.122274160385e-09 3.900000000000e+01
    3.744000000000e+05 4.000000000000e+00
